IRIDIUM 39              
1 25042U 97069D   25221.43225956  .00000656  00000+0  16621-3 0  9997
2 25042  86.3953 188.3151 0019662 124.6187 235.6875 14.49271507456673
IRIDIUM 38              
1 25043U 97069E   25221.46616296  .00000412  00000+0  12954-3 0  9997
2 25043  86.3960 210.7434 0000621  36.9535 323.1706 14.38152819453612
IRIDIUM 42              
1 25077U 97077A   25221.46816206  .00000361  00000+0  11670-3 0  9993
2 25077  86.3954 216.9752 0001657  74.4083 285.7297 14.36384850448845
IRIDIUM 44              
1 25078U 97077B   25221.20935545  .00000398  00000+0  11938-3 0  9991
2 25078  86.3981 198.8797 0001929 140.5961 219.5378 14.40275892451338
IRIDIUM 45              
1 25104U 97082A   25221.53714449  .00030542  00000+0  10406-2 0  9993
2 25104  86.3578  21.9450 0114559 130.9932 230.1292 15.24067500460418
IRIDIUM 24              
1 25105U 97082B   25221.59979292  .00000485  00000+0  14143-3 0  9995
2 25105  86.3860  57.6303 0009256 260.1420  99.8736 14.42139373450915
IRIDIUM 51              
1 25262U 98018A   25221.53151799  .00051487  00000+0  10240-2 0  9998
2 25262  86.3806  29.3434 0081542  45.5819 315.2071 15.43115066455248
IRIDIUM 57              
1 25273U 98019B   25221.48212904  .00000324  00000+0  10483-3 0  9995
2 25273  86.3977 122.9416 0002084  85.1355 275.0079 14.35922832432432
